NORAD_CAT_ID,OBJECT_NAME,OBJECT_TYPE,EPOCH,MEAN_MOTION,ECCENTRICITY,INCLINATION,RA_OF_ASC_NODE,ARG_OF_PERICENTER,MEAN_ANOMALY,BSTAR,MEAN_MOTION_DOT,MEAN_MOTION_DDOT,TLE_LINE0,TLE_LINE1,TLE_LINE2,SEMIMAJOR_AXIS,PERIOD,APOGEE,PERIGEE,DECAYED
51877.0,STARLINK-3556,PAYLOAD,2022-07-24 06:00:00,15.08830228,0.0002158,53.2134,184.7566,49.0887,301.3081,-0.00026291,-4.469e-05,0.0,0 STARLINK-3556,1 51877U 22022AB  22205.25001157 -.00004469  00000-0 -26291-3 0  9996,2 51877  53.2134 184.7566 0002158  49.0887 301.3081 15.08830228 23308,6917.91,95.438,541.268,538.2819999999998,0.0
51877.0,STARLINK-3556,PAYLOAD,2022-07-24 14:00:01,15.0884894,0.0002109999999999,53.2137,183.2594,49.1195,312.8526,-0.0022332,-0.00035664,0.0,0 STARLINK-3556,1 51877U 22022AB  22205.58334491 -.00035664  00000-0 -22332-2 0  9994,2 51877  53.2137 183.2594 0002110  49.1195 312.8526 15.08848940  1304,6917.853,95.437,541.178,538.258,0.0
51877.0,STARLINK-3556,PAYLOAD,2022-07-24 22:00:00,15.08826461,0.0002031,53.2144,181.7621,55.1331,318.4311,0.0017698,0.00027981,0.0,0 STARLINK-3556,1 51877U 22022AB  22205.91667824  .00027981  00000-0  17698-2 0  9990,2 51877  53.2144 181.7621 0002031  55.1331 318.4311 15.08826461  1305,6917.922,95.438,541.192,538.382,0.0
51877.0,STARLINK-3556,PAYLOAD,2022-07-25 06:00:00,15.08837837,0.000222,53.2142,180.2675,51.0693,334.0902,9.5837e-05,1.237e-05,0.0,0 STARLINK-3556,1 51877U 22022AB  22206.25001157  .00001237  00000-0  95837-4 0  9998,2 51877  53.2142 180.2675 0002220  51.0693 334.0902 15.08837837 23451,6917.887,95.438,541.288,538.216,0.0
51877.0,STARLINK-3556,PAYLOAD,2022-07-25 14:00:01,15.08857211,0.0002166999999999,53.214,178.7701,51.0966,345.6486,-0.0021438,-0.00034262,0.0,0 STARLINK-3556,1 51877U 22022AB  22206.58334491 -.00034262  00000-0 -21438-2 0  9994,2 51877  53.2140 178.7701 0002167  51.0966 345.6486 15.08857211  1307,6917.828,95.436,541.192,538.194,0.0
51877.0,STARLINK-3556,PAYLOAD,2022-07-25 22:00:00,15.08844519,0.0002095,53.2142,177.2728,55.8785,352.4662,0.00042004,6.404e-05,0.0,0 STARLINK-3556,1 51877U 22022AB  22206.91667824  .00006404  00000-0  42004-3 0  9998,2 51877  53.2142 177.2728 0002095  55.8785 352.4662 15.08844519  1302,6917.8669999999975,95.437,541.181,538.2819999999998,0.0
51877.0,STARLINK-3556,PAYLOAD,2022-07-26 14:00:01,15.08834805,0.0002144,53.2143,174.2807,50.4627,21.0612,-0.001955,-0.00031264,0.0,0 STARLINK-3556,1 51877U 22022AB  22207.58334491 -.00031264  00000-0 -19550-2 0  9996,2 51877  53.2143 174.2807 0002144  50.4627  21.0612 15.08834805  1300,6917.896,95.438,541.244,538.278,0.0
51877.0,STARLINK-3556,PAYLOAD,2022-07-26 22:00:00,15.08822652,0.0002126999999999,53.2146,172.7836,55.3928,27.7048,0.00098666,0.00015442,0.0,0 STARLINK-3556,1 51877U 22022AB  22207.91667824  .00015442  00000-0  98666-3 0  9996,2 51877  53.2146 172.7836 0002127  55.3928  27.7048 15.08822652  1300,6917.933000000001,95.439,541.27,538.327,0.0
51877.0,STARLINK-3556,PAYLOAD,2022-07-27 06:00:02,15.08819354,0.0002316,53.2148,171.2889,50.9686,43.7768,0.00081658,0.00012725,0.0,0 STARLINK-3556,1 51877U 22022AB  22208.25002315  .00012725  00000-0  81658-3 0  9996,2 51877  53.2148 171.2889 0002316  50.9686  43.7768 15.08819354 23751,6917.943,95.439,541.411,538.206,0.0
51877.0,STARLINK-3556,PAYLOAD,2022-07-27 14:00:01,15.08845213,0.0002236,53.215,169.7915,52.1779,54.07899999999999,-0.0017185,-0.00027539,0.0,0 STARLINK-3556,1 51877U 22022AB  22208.58334491 -.00027539  00000-0 -17185-2 0  9999,2 51877  53.2150 169.7915 0002236  52.1779  54.0790 15.08845213  1304,6917.864000000001,95.437,541.276,538.183,0.0
51877.0,STARLINK-3556,PAYLOAD,2022-07-27 22:00:00,15.08839852,0.0002234999999999,53.2154,168.2944,56.5805,61.264,0.00058194,8.986e-05,0.0,0 STARLINK-3556,1 51877U 22022AB  22208.91667824  .00008986  00000-0  58194-3 0  9994,2 51877  53.2154 168.2944 0002235  56.5805  61.2640 15.08839852  1307,6917.880999999999,95.438,541.2919999999998,538.2,0.0
51877.0,STARLINK-3556,PAYLOAD,2022-07-28 14:00:01,15.08856815,0.0002306,53.2158,165.3023,54.2162,86.8209,-0.0014628,-0.00023505,0.0,0 STARLINK-3556,1 51877U 22022AB  22209.58334491 -.00023505  00000-0 -14628-2 0  9998,2 51877  53.2158 165.3023 0002306  54.2162  86.8209 15.08856815  1309,6917.829000000002,95.436,541.289,538.099,0.0
51877.0,STARLINK-3556,PAYLOAD,2022-07-28 22:00:00,15.08857172,0.0002298,53.2163,163.8055,58.0983,94.5417,0.00023978,3.532e-05,0.0,0 STARLINK-3556,1 51877U 22022AB  22209.91667824  .00003532  00000-0  23978-3 0  9999,2 51877  53.2163 163.8055 0002298  58.0983  94.5417 15.08857172  1300,6917.828,95.436,541.283,538.1030000000002,0.0
51877.0,STARLINK-3556,PAYLOAD,2022-07-29 00:00:00,15.08867986,0.0002316999999999,53.2162,163.43200000000004,56.7591,188.7822,-0.0013452,-0.00021651,0.0,0 STARLINK-3556,1 51877U 22022AB  22210.00001157 -.00021651  00000-0 -13452-2 0  9991,2 51877  53.2162 163.4320 0002317  56.7591 188.7822 15.08867986 24015,6917.795,95.436,541.263,538.057,0.0
51877.0,STARLINK-3556,PAYLOAD,2022-07-29 14:00:01,15.08839017,0.0002239,53.2164,160.8132,54.6971,121.1641,-0.0012203,-0.00019657,0.0,0 STARLINK-3556,1 51877U 22022AB  22210.58334491 -.00019657  00000-0 -12203-2 0  9990,2 51877  53.2164 160.8132 0002239  54.6971 121.1641 15.08839017  1302,6917.8830000000025,95.438,541.297,538.1990000000002,0.0
51877.0,STARLINK-3556,PAYLOAD,2022-07-29 22:00:00,15.08843633,0.0002241,53.2168,159.3167,58.5041,128.9389,-0.00026361,-4.482e-05,0.0,0 STARLINK-3556,1 51877U 22022AB  22210.91667824 -.00004482  00000-0 -26361-3 0  9997,2 51877  53.2168 159.3167 0002241  58.5041 128.9389 15.08843633  1304,6917.869000000002,95.437,541.285,538.184,0.0
51877.0,STARLINK-3556,PAYLOAD,2022-07-30 06:00:00,15.08818956,0.0002396,53.2167,157.822,53.298,145.746,0.002125,0.00033675,0.0,0 STARLINK-3556,1 51877U 22022AB  22211.25001157  .00033675  00000-0  21250-2 0  9991,2 51877  53.2167 157.8220 0002396  53.2980 145.7460 15.08818956 24202,6917.945,95.439,541.467,538.1519999999998,0.0
51877.0,STARLINK-3556,PAYLOAD,2022-07-30 14:00:01,15.08844724,0.000225,53.2166,156.3242,57.091,153.5392,-0.00083138,-0.00013498,0.0,0 STARLINK-3556,1 51877U 22022AB  22211.58334491 -.00013498  00000-0 -83138-3 0  9994,2 51877  53.2166 156.3242 0002250  57.0910 153.5392 15.08844724  1302,6917.866,95.437,541.2869999999998,538.174,0.0
51877.0,STARLINK-3556,PAYLOAD,2022-07-30 22:00:00,15.08855663,0.0002258,53.2168,154.8281,60.649,161.5726,-0.00066547,-0.00010869,0.0,0 STARLINK-3556,1 51877U 22022AB  22211.91667824 -.00010869  00000-0 -66547-3 0  9994,2 51877  53.2168 154.8281 0002258  60.6490 161.5726 15.08855663 24300,6917.833000000001,95.437,541.26,538.135,0.0
51877.0,STARLINK-3556,PAYLOAD,2022-07-31 14:00:01,15.08857041,0.0002242,53.2164,151.8353,59.53100000000001,185.9016,-0.0017053,-0.00027339,0.0,0 STARLINK-3556,1 51877U 22022AB  22212.58334491 -.00027339  00000-0 -17053-2 0  9996,2 51877  53.2164 151.8353 0002242  59.5310 185.9016 15.08857041  1303,6917.828,95.436,541.244,538.1419999999998,0.0
51877.0,STARLINK-3556,PAYLOAD,2022-07-31 22:00:00,15.08848578,0.0002215,53.2163,150.3393,61.7144,195.3223,-0.0019605,-0.00031363,0.0,0 STARLINK-3556,1 51877U 22022AB  22212.91667824 -.00031363  00000-0 -19605-2 0  9999,2 51877  53.2163 150.3393 0002215  61.7144 195.3223 15.08848578  1300,6917.854,95.437,541.251,538.187,0.0
51877.0,STARLINK-3556,PAYLOAD,2022-08-01 06:00:00,15.08805815,0.0002338,53.2161,148.8444,56.2889,212.3435,0.0026854,0.0004266999999999,0.0,0 STARLINK-3556,1 51877U 22022AB  22213.25001157  .00042670  00000-0  26854-2 0  9993,2 51877  53.2161 148.8444 0002338  56.2889 212.3435 15.08805815 24518,6917.985,95.44,541.467,538.232,0.0
51877.0,STARLINK-3556,PAYLOAD,2022-08-01 14:00:01,15.08825711,0.0002211999999999,53.2159,147.3464,60.6286,219.5806,0.0003131999999999,4.698e-05,0.0,0 STARLINK-3556,1 51877U 22022AB  22213.58334491  .00004698  00000-0  31320-3 0  9992,2 51877  53.2159 147.3464 0002212  60.6286 219.5806 15.08825711  1302,6917.924,95.438,541.319,538.259,0.0
51877.0,STARLINK-3556,PAYLOAD,2022-08-01 22:00:00,15.08850549,0.0002263,53.2158,145.8504,63.1098,228.6766,-0.0011225999999999,-0.00018116,0.0,0 STARLINK-3556,1 51877U 22022AB  22213.91667824 -.00018116  00000-0 -11226-2 0  9992,2 51877  53.2158 145.8504 0002263  63.1098 228.6766 15.08850549 24616,6917.848000000001,95.437,541.279,538.148,0.0
51877.0,STARLINK-3556,PAYLOAD,2022-08-02 14:00:01,15.08832456,0.0002279999999999,53.2155,142.8572,62.4258,252.5546,0.00095108,0.00014878,0.0,0 STARLINK-3556,1 51877U 22022AB  22214.58334491  .00014878  00000-0  95108-3 0  9998,2 51877  53.2155 142.8572 0002280  62.4258 252.5546 15.08832456 24714,6917.903,95.438,541.346,538.191,0.0
51877.0,STARLINK-3556,PAYLOAD,2022-08-03 14:00:01,15.08815233,0.0002255999999999,53.2155,138.3679,62.5627,287.2069,0.0016059999999999,0.00025347,0.0,0 STARLINK-3556,1 51877U 22022AB  22215.58334491  .00025347  00000-0  16060-2 0  9991,2 51877  53.2155 138.3679 0002256  62.5627 287.2069 15.08815233 24861,6917.956,95.439,541.382,538.26,0.0
51877.0,STARLINK-3556,PAYLOAD,2022-08-03 22:00:01,15.08850695,0.0002356999999999,53.2156,136.8719,63.1419,298.2614,-0.0015573,-0.00024996,0.0,0 STARLINK-3556,1 51877U 22022AB  22215.91668981 -.00024996  00000-0 -15573-2 0  9991,2 51877  53.2156 136.8719 0002357  63.1419 298.2614 15.08850695  1301,6917.848000000001,95.437,541.3430000000002,538.082,0.0
51877.0,STARLINK-3556,PAYLOAD,2022-08-04 14:00:01,15.08828742,0.0002314,53.2157,133.8784,63.9849,320.5567,0.0019027999999999,0.00030116,0.0,0 STARLINK-3556,1 51877U 22022AB  22216.58334491  .00030116  00000-0  19028-2 0  9999,2 51877  53.2157 133.8784 0002314  63.9849 320.5567 15.08828742 25017,6917.915,95.438,541.381,538.179,0.0
51877.0,STARLINK-3556,PAYLOAD,2022-08-04 22:00:00,15.08856316,0.0002353,53.2159,132.3827,63.3326,332.8024,-0.0033205999999999,-0.00052775,0.0,0 STARLINK-3556,1 51877U 22022AB  22216.91667824 -.00052775  00000-0 -33206-2 0  9996,2 51877  53.2159 132.3827 0002353  63.3326 332.8024 15.08856316  1306,6917.831,95.437,541.323,538.068,0.0
